"MEAN_MOTION","ECCENTRICITY","INCLINATION","RA_OF_ASC_NODE","ARG_OF_PERICENTER","MEAN_ANOMALY","SEMIMAJOR_AXIS","PERIOD","APOAPSIS","PERIAPSIS","OBJECT_AGE","ENCODED_SIZE","CENT_FOCUS_DIST","ENCODED_COUNTRY","ENCODED_OBJECT_TYPE"
14.44537426,0.0087043,98.8654,116.1317,184.4087,175.6345,7121.683,99.686,805.537,681.559,24,1,61.9892653369,75,1
14.07145385,0.0160135,70.9813,255.8738,210.9861,148.1737,7247.294,102.335,985.213,753.104,32,1,116.054542469,14,1
13.33354418,0.038828,98.6913,258.2805,39.397,79.7522,7512.274,107.998,1425.826,842.453,25,1,291.686574872,53,1
13.41655263,0.0157513,99.2429,339.6214,99.9688,22.723,7481.257,107.33,1220.961,985.282,49,1,117.8395233841,75,1
15.30400085,0.0006012,97.312,10.9746,356.3495,3.7702,6852.755,94.093,478.74,470.5,7,1,4.119876306,75,2
14.01533777,0.0105327,99.1901,280.8748,182.2005,177.871,7266.626,102.745,965.028,811.954,25,1,76.5371916702,53,1
13.91845969,0.0022714,82.5344,212.4258,44.7789,76.3962,7300.306,103.46,938.753,905.589,36,1,16.5819150484,14,1
14.09902671,0.004978,98.9775,14.1218,281.7269,145.2732,7237.842,102.135,895.737,823.677,25,1,36.029977476,53,1
12.43010894,0.0014398,82.4962,272.3189,285.4152,74.5337,7872.002,115.848,1505.202,1482.533,4,1,11.3341084796,14,4
14.14380051,0.00164,98.6708,247.3946,22.405,337.7837,7222.559,101.811,856.269,832.579,17,1,11.84499676,53,1
14.38847169,0.0025736,98.5434,244.9498,311.0164,48.8798,7140.447,100.08,780.689,743.935,25,1,18.3766543992,53,1
13.94707033,0.0065699,82.9744,20.0706,231.5577,127.9683,7290.319,103.247,960.08,864.287,43,1,47.8966667981,14,1
13.85832839,0.0211143,98.1506,340.6047,88.2243,274.3085,7321.408,103.909,1097.859,788.687,25,1,154.5864049344,53,1
14.60858083,0.0131042,98.3565,15.3557,173.3755,186.9217,7068.542,98.572,783.034,597.779,8,1,92.6275880764,53,1
14.02375579,0.0053848,98.7774,327.9995,9.604,350.6143,7263.718,102.683,924.696,846.469,24,1,39.1136686864,75,1
3.01955272,0.6283954,49.0915,352.5963,341.0804,3.5218,20219.641,476.892,26547.435,1135.576,16,1,12705.9293940514,14,1
14.78856346,0.0014477,97.7972,7.0108,324.4913,35.5333,7011.073,97.373,643.088,622.788,6,1,10.1499303821,53,3
14.61194621,0.016208,98.8829,323.5055,109.5104,13.3063,7067.456,98.55,803.871,574.772,25,1,114.549326848,53,1
14.60127257,0.0051229,74.0085,212.6051,40.0819,81.4604,7070.9,98.622,728.989,656.542,31,1,36.22351361,14,1
14.3051434,0.0018889,98.6404,250.4888,80.354,279.9776,7168.149,100.663,803.554,776.474,22,1,13.5399166461,75,1
13.90492145,0.0027054,82.519,293.9519,74.9859,285.4296,7305.044,103.56,946.672,907.146,40,1,19.7630660376,14,1
12.20675475,0.0144942,74.0567,163.9935,144.0353,217.0542,7967.738,117.967,1705.089,1474.117,33,1,115.4859881196,14,1
14.52786406,0.0042851,86.2094,215.7656,330.3688,205.6219,7094.699,99.12,746.966,686.163,27,1,30.4014946849,75,1
12.05933859,0.0002629,82.9703,285.0208,31.7049,145.1618,8032.539,119.41,1656.516,1652.292,43,1,2.1117545031,14,1
12.46221187,0.009603,101.6506,218.2098,158.1694,202.3508,7858.478,115.549,1555.808,1404.878,51,1,75.464964234,75,1
14.11794926,0.0026641,98.8725,349.1745,134.6248,346.9475,7231.373,101.998,872.503,833.973,25,1,19.2651008093,53,1
15.13344342,7.01e-05,97.4797,15.8895,126.7056,233.424,6904.147,95.153,526.496,525.528,4,1,0.4839807047,75,2
15.31335819,0.0005778,97.3136,12.0593,325.3005,34.7858,6849.963,94.036,475.786,467.87,7,1,3.9579086214,75,2
14.26634684,0.0059442,98.6454,358.6389,206.6807,153.1311,7181.139,100.937,845.69,760.318,25,1,42.6861264438,53,1
13.9329065,0.0022602,82.5317,196.5918,59.3647,300.9743,7295.259,103.352,933.612,900.635,36,1,16.4887443918,14,1
15.41584106,0.0016406,97.5241,91.8854,81.2451,279.0652,6819.571,93.41,452.624,430.247,6,1,11.1881881826,53,1
14.5056291,0.0180191,97.8876,65.3587,146.4831,214.7922,7101.948,99.272,851.783,595.842,14,1,127.9707112068,53,1
13.97301467,0.008798,99.3792,325.3128,77.1899,294.9975,7281.292,103.056,967.218,839.096,25,1,64.060807016,53,1
14.25774107,0.003641,99.0478,102.0983,87.6442,272.8905,7184.028,100.998,832.05,779.736,24,1,26.157045948,75,1
14.47285817,0.006764,74.0616,83.5878,147.1022,213.4375,7112.664,99.497,782.639,686.419,31,1,48.110059296,14,1
15.53550957,0.000606,96.8278,152.6916,270.2859,89.7702,6784.505,92.691,410.482,402.259,7,1,4.11141003,75,2
11.39687731,0.1949937,51.4354,119.7058,341.8446,12.1197,8340.868,126.35,3589.15,336.316,13,1,1626.4167125316,14,1
14.18621909,0.0263756,97.8771,286.8665,36.1207,25.0107,7208.154,101.507,1020.139,639.9,16,1,190.1193866424,53,1
14.01952881,0.0127745,70.9047,198.4204,320.4877,216.1809,7265.178,102.714,979.852,794.233,17,1,92.809016361,14,1
14.59379183,0.007993,98.2224,248.9038,192.7123,167.2063,7073.316,98.672,751.718,638.644,17,1,56.537014788,75,2
14.20797326,0.0068965,99.2847,240.0159,37.3901,323.2044,7200.795,101.352,872.32,772.999,25,1,49.6602827175,53,1
15.04021691,0.0004041,86.4121,264.4356,155.2025,204.9405,6932.647,95.743,557.314,551.711,27,1,2.8014826527,75,1
14.99631385,0.000871,36.9042,139.4257,355.5329,4.5393,6946.171,96.024,574.086,561.986,4,1,6.050114941,75,2
14.28167855,0.0092585,98.53,344.9003,79.2507,94.559,7175.998,100.828,864.302,731.425,25,1,66.438977483,53,1
15.13221925,0.0008633,97.4811,3.635,14.1852,345.962,6904.519,95.161,532.345,520.423,3,1,5.9606712527,75,2
14.28813297,0.0089826,98.8875,81.0255,63.1371,0.5785,7173.837,100.783,860.142,731.263,25,1,64.4397082362,53,1
15.05135608,0.0024388,73.6864,132.298,37.7389,322.5502,6929.226,95.672,567.99,534.192,31,1,16.8989963688,14,1
14.6941021,0.006092,99.0237,48.7934,342.9757,16.9401,7041.089,97.999,705.848,620.059,25,1,42.894314188,53,1
14.1238577,0.0064254,98.8424,5.6483,206.8047,152.98,7229.356,101.955,897.673,804.77,25,1,46.4515040424,53,1
13.3811863,0.0186506,82.6021,239.1297,308.8105,49.6501,7494.433,107.614,1256.073,976.522,33,1,139.7756721098,14,1
13.8730156,0.0328982,98.265,107.376,316.5871,100.5893,7316.24,103.799,1178.796,697.414,25,1,240.691126768,53,1
12.15020925,0.0054575,82.9591,140.9164,270.6575,266.6448,7992.439,118.516,1657.923,1570.685,43,1,43.6187358425,14,1
14.34589637,0.0056532,98.9416,103.6939,306.2216,53.3749,7154.567,100.377,816.879,735.986,24,1,40.4461981644,75,1
15.23190454,0.0268651,63.2883,36.4842,84.9593,278.2125,6874.362,94.538,680.907,311.546,38,1,184.6804225662,75,1
14.65516719,0.0031207,74.038,334.0357,296.1856,126.0218,7053.554,98.259,697.431,653.407,31,1,22.0120259678,14,1
14.69661616,0.017328,97.944,86.4771,8.485,351.922,7040.286,97.982,784.145,540.156,25,1,121.994075808,53,1
14.23468944,0.0247562,99.106,161.7254,85.8417,277.101,7191.782,101.161,991.688,635.606,25,1,178.0411935484,53,1
11.68288759,0.0414033,102.6327,162.2774,307.8901,210.5839,8204.177,123.257,2165.722,1486.362,48,1,339.6800015841,75,1
14.82573381,0.0004915,97.8998,352.575,70.3282,289.8461,6999.35,97.128,624.655,617.775,30,1,3.440180525,14,1
14.46531681,0.0069812,74.0473,38.286,140.7169,232.9852,7115.136,99.548,786.673,687.329,31,1,49.6721874432,14,1
14.43646056,0.0042663,74.0117,122.4261,215.5833,157.4492,7124.614,99.747,776.875,716.084,31,1,30.3957407082,14,1
15.03341573,0.001351,97.701,241.0898,356.7257,3.3899,6934.738,95.787,565.972,547.234,4,1,9.368831038,75,2
14.36784865,0.0184191,98.22,85.7431,226.6531,131.9183,7147.278,100.224,900.789,637.497,23,1,131.6464282098,28,1
14.50424322,0.0008977,74.0482,39.687,43.5373,316.6494,7102.4,99.281,730.641,717.889,31,1,6.37582448,14,1
14.69833191,0.0239214,99.0041,243.851,135.1897,226.8902,7039.738,97.97,830.003,493.202,23,1,168.4003885932,28,1
14.58414546,0.001476,74.031,345.271,34.2698,27.1116,7076.435,98.737,708.745,687.855,31,1,10.44481806,14,1
15.32480541,0.0033734,64.5031,236.7144,264.0033,95.7252,6846.551,93.965,491.512,445.32,18,1,23.0961551434,14,1
14.6390744,0.001711,98.0853,75.2483,138.1742,222.0771,7058.722,98.367,692.665,668.51,19,1,12.077473342,23,2
14.19437154,0.0021836,98.9392,52.7196,16.0159,344.1702,7205.394,101.449,842.993,811.525,24,1,15.7336983384,75,1
15.12402608,0.0009218,97.5292,71.8517,165.6831,194.4662,6907.012,95.213,535.244,522.51,3,1,6.3668836616,75,2
14.14808398,0.0138738,86.3172,19.9584,336.3998,23.0859,7221.101,101.781,943.15,742.782,27,1,100.1841110538,75,1
14.1201101,0.0062351,99.2421,103.9296,7.2177,113.2115,7230.635,101.982,897.584,807.416,25,1,45.0837322885,53,1
15.33562842,0.001492,97.3779,24.1186,138.4827,342.8511,6843.33,93.899,475.405,454.984,6,1,10.21024836,75,2
14.47182019,0.0201098,97.7281,173.5633,216.082,142.6664,7113.004,99.504,877.91,591.828,11,1,143.0410878392,52,2
14.05953817,0.0052369,98.8198,338.2878,308.6923,64.0167,7251.388,102.422,911.228,835.278,25,1,37.9747938172,53,1
14.24660775,0.0026709,98.7905,309.9491,325.2624,34.681,7187.77,101.077,828.833,790.438,29,1,19.197814893,75,1
14.40446924,0.0002644,98.1512,298.6999,215.6364,144.4649,7135.159,99.969,758.911,755.138,29,1,1.8865360396,17,1
15.07325511,0.0160803,98.2614,197.5247,343.3945,16.2049,6922.513,95.533,655.695,433.062,25,1,111.3160857939,53,1
15.316822,0.0010609,51.6407,141.4568,315.1807,44.8317,6848.93,94.014,478.061,463.529,5,1,7.266029837,16,2
14.39365629,0.0069209,99.4873,151.5976,279.2085,80.1276,7138.732,100.044,810.004,711.191,25,1,49.4064502988,53,1
14.36411852,0.0236417,99.0399,253.8174,353.0696,6.7238,7148.515,100.25,939.383,601.377,25,1,169.0030470755,53,1
14.16334149,0.0177007,98.6381,328.0197,355.0939,4.8495,7215.914,101.671,965.506,710.052,25,1,127.7267289398,53,1
14.20837057,0.0026265,98.8036,36.4782,13.7447,346.4439,7200.66,101.349,841.438,803.613,24,1,18.91253349,75,1
14.31719712,0.0016294,99.7572,120.857,75.0596,298.2099,7164.125,100.578,797.664,774.317,49,1,11.673225275,75,1
14.61467502,0.0122272,98.5163,7.4086,219.9608,139.2546,7066.577,98.531,774.846,602.037,52,1,86.4044502944,75,1
14.59305433,0.0065659,74.0543,234.2345,350.0836,9.9028,7073.555,98.677,741.864,648.975,31,1,46.4442547745,14,1
13.64680732,0.00427,100.4094,28.959,313.8982,223.3681,7396.867,105.519,1050.316,987.147,58,1,31.58462209,75,1
14.9985168,0.0008698,36.905,138.303,359.5991,0.4741,6945.491,96.009,573.397,561.315,4,1,6.0411880718,75,2
